STARLINK-32830          
1 63034U 25034F   26068.73607494  .00018267  00000+0  62718-3 0  9992
2 63034  53.1578 257.9268 0001575 135.6995 224.4132 15.30208554 59096
KUIPER-00222            
1 67782U 26030U   26068.67636257  .00055223  00000+0  17317-2 0  9992
2 67782  51.8817 219.7147 0012800  40.1845 320.0084 15.32445377  5087
